ORBCOMM FM115           
1 41186U 15081H   24118.57125729  .00002194  00000+0  48167-3 0  9993
2 41186  46.9973 213.4145 0001505 286.0419  74.0302 14.60625153446970
ORBCOMM FM108           
1 41187U 15081J   24118.71884774  .00002716  00000+0  64144-3 0  9995
2 41187  47.0035 266.6145 0003171 212.3732 147.6959 14.56533657446194
ORBCOMM FM117           
1 41188U 15081K   24118.68459750  .00002653  00000+0  62753-3 0  9998
2 41188  46.9992 265.6728 0003695 220.4364 139.6247 14.56538242446234
ORBCOMM FM116           
1 41189U 15081L   24118.94829990  .00002798  00000+0  65962-3 0  9990
2 41189  47.0017 354.2503 0002352 305.2907  54.7757 14.56538796445084
